{
  "norad_id": 68875,
  "name": "KUIPER-00478",
  "history": [
    {
      "epoch": "2026-05-02T10:00:03.000096Z",
      "apogee_km": 462.3385819853838,
      "perigee_km": 450.8412044056513,
      "latitude_deg": 33.992954183124425,
      "longitude_deg": -118.37077589194433,
      "height_km": 453.11098838471725,
      "semi_major_axis_km": 6834.726893195518,
      "eccentricity": 0.0008411,
      "inclination_deg": 51.8761,
      "raan_deg": 103.7299,
      "arg_perigee_deg": 130.2739,
      "mean_anomaly_deg": 4.5945,
      "mean_motion_rev_day": 15.36459135
    }
  ]
}