{"fetched_at":"2026-05-03T06:27:58Z","count":17151,"tles":[{"name":"KUIPER-00478","line1":"1 68875U 26095M   26122.41670139  .00068817  00000+0  18966-2 0  9991","line2":"2 68875  51.8761 103.7299 0008411 130.2739   4.5945 15.36459135  1307","category":"Other"}]}